NORAD_CAT_ID,OBJECT_NAME,OBJECT_TYPE,EPOCH,MEAN_MOTION,ECCENTRICITY,INCLINATION,RA_OF_ASC_NODE,ARG_OF_PERICENTER,MEAN_ANOMALY,BSTAR,MEAN_MOTION_DOT,MEAN_MOTION_DDOT,TLE_LINE0,TLE_LINE1,TLE_LINE2,SEMIMAJOR_AXIS,PERIOD,APOGEE,PERIGEE,DECAYED
52616.0,STARLINK-4015,PAYLOAD,2023-04-12 01:30:37,15.08839108,8.69e-05,53.2174,359.437,91.2185,268.8907,8.6754e-05,1.093e-05,0.0,0 STARLINK-4015,1 52616U 22052U   23102.06293647  .00001093  00000-0  86754-4 0  9993,2 52616  53.2174 359.4370 0000869  91.2185 268.8907 15.08839108 50574,6917.883,95.438,540.349,539.147,0.0
52616.0,STARLINK-4015,PAYLOAD,2023-04-12 23:46:01,15.08841709,5.64e-05,53.2172,355.2753,91.3191,268.7866,0.00047665,7.307e-05,0.0,0 STARLINK-4015,1 52616U 22052U   23102.99030068  .00007307  00000-0  47665-3 0  9992,2 52616  53.2172 355.2753 0000564  91.3191 268.7866 15.08841709 51081,6917.875,95.437,540.13,539.35,0.0
52616.0,STARLINK-4015,PAYLOAD,2023-04-13 02:56:48,15.08847069,6.97e-05,53.2176,354.6791,89.5086,270.5986,0.00055566,8.568e-05,0.0,0 STARLINK-4015,1 52616U 22052U   23103.12277916  .00008568  00000-0  55566-3 0  9992,2 52616  53.2176 354.6791 0000697  89.5086 270.5986 15.08847069 50739,6917.859,95.437,540.206,539.242,0.0
52616.0,STARLINK-4015,PAYLOAD,2023-04-14 01:12:11,15.08855888,6.45e-05,53.2176,350.5172,93.6149,266.4917,0.00050329,7.735e-05,0.0,0 STARLINK-4015,1 52616U 22052U   23104.05013525  .00007735  00000-0  50329-3 0  9996,2 52616  53.2176 350.5172 0000645  93.6149 266.4917 15.08855888 51249,6917.832,95.437,540.143,539.251,0.0
52616.0,STARLINK-4015,PAYLOAD,2023-04-14 02:47:34,15.08860146,5.82e-05,53.2173,350.2184,90.4553,269.6506,0.00060931,9.428e-05,0.0,0 STARLINK-4015,1 52616U 22052U   23104.11637371  .00009428  00000-0  60931-3 0  9995,2 52616  53.2173 350.2184 0000582  90.4553 269.6506 15.08860146 50881,6917.819,95.436,540.086,539.281,0.0
52616.0,STARLINK-4015,PAYLOAD,2023-04-14 13:55:17,15.08839857,9.43e-05,53.2173,348.1355,78.3005,281.8093,-7.7727e-07,-3e-06,0.0,0 STARLINK-4015,1 52616U 22052U   23104.58005938 -.00000300  00000-0 -77727-6 0  9990,2 52616  53.2173 348.1355 0000943  78.3005 281.8093 15.08839857 51327,6917.881,95.438,540.398,539.093,0.0
52616.0,STARLINK-4015,PAYLOAD,2023-04-15 01:02:58,15.08847072,8.95e-05,53.2177,346.0539,76.0062,284.103,0.00016735,2.377e-05,0.0,0 STARLINK-4015,1 52616U 22052U   23105.04373733  .00002377  00000-0  16735-3 0  9996,2 52616  53.2177 346.0539 0000895  76.0062 284.1030 15.08847072 51028,6917.859,95.437,540.343,539.105,0.0
52616.0,STARLINK-4015,PAYLOAD,2023-04-15 21:42:59,15.08841216,8.4e-05,53.2177,342.1904,84.4359,275.6728,0.0001113,1.484e-05,0.0,0 STARLINK-4015,1 52616U 22052U   23105.90486055  .00001484  00000-0  11130-3 0  9995,2 52616  53.2177 342.1904 0000840  84.4359 275.6728 15.08841216 51150,6917.877,95.437,540.323,539.161,0.0
52616.0,STARLINK-4015,PAYLOAD,2023-04-16 00:53:46,15.08845244,8.33e-05,53.2171,341.5948,76.8889,283.2196,0.00012999,1.782e-05,0.0,0 STARLINK-4015,1 52616U 22052U   23106.03733914  .00001782  00000-0  12999-3 0  9994,2 52616  53.2171 341.5948 0000833  76.8889 283.2196 15.08845244 51542,6917.864,95.437,540.306,539.153,0.0
52616.0,STARLINK-4015,PAYLOAD,2023-04-16 19:58:24,15.08837406,0.0001257,53.2158,338.0284,57.3477,302.7636,8.9143e-05,1.131e-05,0.0,0 STARLINK-4015,1 52616U 22052U   23106.83222647  .00001131  00000-0  89143-4 0  9992,2 52616  53.2158 338.0284 0001257  57.3477 302.7636 15.08837406 51669,6917.888,95.438,540.623,538.884,0.0
52616.0,STARLINK-4015,PAYLOAD,2023-04-16 21:33:47,15.088403,6.85e-05,53.2164,337.7293,95.2111,264.8959,0.00014443,2.012e-05,0.0,0 STARLINK-4015,1 52616U 22052U   23106.89846523  .00002012  00000-0  14443-3 0  9992,2 52616  53.2164 337.7293 0000685  95.2111 264.8959 15.08840300 51306,6917.879,95.438,540.218,539.271,0.0
52616.0,STARLINK-4015,PAYLOAD,2023-04-16 23:09:10,15.08843427,7.78e-05,53.2171,337.4324,86.3299,273.7782,0.00021532,3.141e-05,0.0,0 STARLINK-4015,1 52616U 22052U   23106.96470270  .00003141  00000-0  21532-3 0  9993,2 52616  53.2171 337.4324 0000778  86.3299 273.7782 15.08843427 51314,6917.87,95.437,540.273,539.197,0.0
52616.0,STARLINK-4015,PAYLOAD,2023-04-17 21:24:34,15.08840316,7.09e-05,53.2161,333.2689,85.5373,274.57,0.00013604,1.878e-05,0.0,0 STARLINK-4015,1 52616U 22052U   23107.89206668  .00001878  00000-0  13604-3 0  9990,2 52616  53.2161 333.2689 0000709  85.5373 274.5700 15.08840316 51457,6917.879,95.438,540.235,539.254,0.0
52616.0,STARLINK-4015,PAYLOAD,2023-04-18 00:35:20,15.08843898,7.87e-05,53.2159,332.6739,87.2773,272.831,0.00022286,3.261e-05,0.0,0 STARLINK-4015,1 52616U 22052U   23108.02454584  .00003261  00000-0  22286-3 0  9992,2 52616  53.2159 332.6739 0000787  87.2773 272.8310 15.08843898 51841,6917.868,95.437,540.278,539.189,0.0
52616.0,STARLINK-4015,PAYLOAD,2023-04-18 21:15:21,15.08844322,8.31e-05,53.2168,328.8084,79.5446,280.564,0.00022085,3.229e-05,0.0,0 STARLINK-4015,1 52616U 22052U   23108.88566837  .00003229  00000-0  22085-3 0  9992,2 52616  53.2168 328.8084 0000831  79.5446 280.5640 15.08844322 51601,6917.867,95.437,540.307,539.157,0.0
52616.0,STARLINK-4015,PAYLOAD,2023-04-19 00:26:07,15.08849033,8.47e-05,53.217,328.2133,80.8694,279.2394,0.00031629,4.751e-05,0.0,0 STARLINK-4015,1 52616U 22052U   23109.01814673  .00004751  00000-0  31629-3 0  9997,2 52616  53.2170 328.2133 0000847  80.8694 279.2394 15.08849033 51627,6917.853,95.437,540.304,539.132,0.0
52616.0,STARLINK-4015,PAYLOAD,2023-04-19 21:06:08,15.08851072,8.22e-05,53.2154,324.348,88.2569,271.8517,0.00029881,4.472e-05,0.0,0 STARLINK-4015,1 52616U 22052U   23109.87926503  .00004472  00000-0  29881-3 0  9994,2 52616  53.2154 324.3480 0000822  88.2569 271.8517 15.08851072 51752,6917.847,95.437,540.28,539.143,0.0
52616.0,STARLINK-4015,PAYLOAD,2023-04-20 13:00:00,15.08845868,0.0001687,53.2163,321.3736,71.6124,288.5052,0.00017134,2.44e-05,0.0,0 STARLINK-4015,1 52616U 22052U   23110.54166795  .00002440  00000-0  17134-3 0  9990,2 52616  53.2163 321.3736 0001687  71.6124 288.5052 15.08845868 51852,6917.862,95.437,540.894,538.56,0.0
52616.0,STARLINK-4015,PAYLOAD,2023-04-20 20:56:55,15.08842456,0.0001112,53.2159,319.8859,83.1842,276.9277,6.5206e-05,7.5e-06,0.0,0 STARLINK-4015,1 52616U 22052U   23110.87286705  .00000750  00000-0  65206-4 0  9996,2 52616  53.2159 319.8859 0001112  83.1842 276.9277 15.08842456 51909,6917.873,95.437,540.507,538.969,0.0
52616.0,STARLINK-4015,PAYLOAD,2023-04-21 06:29:14,15.08842594,8.69e-05,53.2158,318.1018,76.8374,283.2715,7.9327e-05,9.75e-06,0.0,0 STARLINK-4015,1 52616U 22052U   23111.27030717  .00000975  00000-0  79327-4 0  9999,2 52616  53.2158 318.1018 0000869  76.8374 283.2715 15.08842594 51961,6917.872,95.437,540.339,539.136,0.0
52616.0,STARLINK-4015,PAYLOAD,2023-04-21 14:26:10,15.08837323,9.06e-05,53.216,316.6155,86.8857,273.2239,-3.9333e-05,-9.14e-06,0.0,0 STARLINK-4015,1 52616U 22052U   23111.60150990 -.00000914  00000-0 -39333-4 0  9990,2 52616  53.2160 316.6155 0000906  86.8857 273.2239 15.08837323 52389,6917.889,95.438,540.38,539.127,0.0
52616.0,STARLINK-4015,PAYLOAD,2023-04-22 14:16:57,15.08839229,9.09e-05,53.2155,312.1545,83.8462,276.2634,9.203e-05,1.177e-05,0.0,0 STARLINK-4015,1 52616U 22052U   23112.59511003  .00001177  00000-0  92030-4 0  9998,2 52616  53.2155 312.1545 0000909  83.8462 276.2634 15.08839229 52164,6917.883,95.438,540.377,539.119,0.0
52616.0,STARLINK-4015,PAYLOAD,2023-04-22 23:49:15,15.08850784,0.0001009,53.2157,310.3697,80.4072,279.7034,0.00024177,3.563e-05,0.0,0 STARLINK-4015,1 52616U 22052U   23112.99254408  .00003563  00000-0  24177-3 0  9992,2 52616  53.2157 310.3697 0001009  80.4072 279.7034 15.08850784 52594,6917.847,95.437,540.41,539.014,0.0
52616.0,STARLINK-4015,PAYLOAD,2023-04-23 15:43:08,15.0883488,9.9e-05,53.2167,307.3967,90.389,269.7215,5.7369e-05,6.25e-06,0.0,0 STARLINK-4015,1 52616U 22052U   23113.65495446  .00000625  00000-0  57369-4 0  9991,2 52616  53.2167 307.3967 0000990  90.3890 269.7215 15.08834880 52697,6917.896,95.438,540.446,539.076,0.0
52616.0,STARLINK-4015,PAYLOAD,2023-04-23 23:40:03,15.08842973,0.0001308,53.2147,305.9096,79.6856,280.4284,0.00014442,2.011e-05,0.0,0 STARLINK-4015,1 52616U 22052U   23113.98615123  .00002011  00000-0  14442-3 0  9998,2 52616  53.2147 305.9096 0001308  79.6856 280.4284 15.08842973 52742,6917.871,95.437,540.641,538.831,0.0
52616.0,STARLINK-4015,PAYLOAD,2023-04-24 06:01:35,15.08863144,0.000111,53.2162,304.7196,91.0248,269.0871,0.00059765,9.242e-05,0.0,0 STARLINK-4015,1 52616U 22052U   23114.25110539  .00009242  00000-0  59765-3 0  9990,2 52616  53.2162 304.7196 0001110  91.0248 269.0871 15.08863144 52783,6917.81,95.436,540.443,538.907,0.0
52616.0,STARLINK-4015,PAYLOAD,2023-04-24 18:44:39,15.0888986,0.0001033,53.2169,302.343,81.969,278.1419,0.0010071,0.00015798,0.0,0 STARLINK-4015,1 52616U 22052U   23114.78101036  .00015798  00000-0  10071-2 0  9999,2 52616  53.2169 302.3430 0001033  81.9690 278.1419 15.08889860 52869,6917.728,95.434,540.308,538.878,0.0
52616.0,STARLINK-4015,PAYLOAD,2023-04-24 23:30:48,15.0888662,0.0001215,53.2165,301.4509,75.0281,285.0846,0.001061,0.0001666,0.0,0 STARLINK-4015,1 52616U 22052U   23114.97973130  .00016660  00000-0  10610-2 0  9990,2 52616  53.2165 301.4509 0001215  75.0281 285.0846 15.08886620 52899,6917.738,95.435,540.443,538.762,0.0
52616.0,STARLINK-4015,PAYLOAD,2023-04-25 12:13:55,15.08808874,0.0002235,53.2158,299.0719,99.3228,260.8017,-0.00126,-0.00020269,0.0,0 STARLINK-4015,1 52616U 22052U   23115.50967224 -.00020269  00000-0 -12600-2 0  9990,2 52616  53.2158 299.0719 0002235  99.3228 260.8017 15.08808874 52604,6917.976,95.44,541.387,538.294,0.0
52616.0,STARLINK-4015,PAYLOAD,2023-04-26 13:40:06,15.08841529,3.06e-05,53.2163,294.314,327.6099,32.4874,0.0014728,0.0002323,0.0,0 STARLINK-4015,1 52616U 22052U   23116.56952247  .00023230  00000-0  14728-2 0  9998,2 52616  53.2163 294.3140 0000306 327.6099  32.4874 15.08841529 52761,6917.876,95.437,539.952,539.529,0.0
